ONEWEB-0379             
1 49305U 21090AC  25295.16976580  .00000001  00000+0 -32466-4 0  9994
2 49305  87.9025 337.1206 0001743  99.3030 260.8297 13.14504488196294
ONEWEB-0380             
1 49306U 21090AD  25295.19621748  .00000049  00000+0  88985-4 0  9999
2 49306  87.9254 352.3229 0001818  92.3813 267.7528 13.19724632195032
ONEWEB-0381             
1 49307U 21090AE  25295.13049188  .00000036  00000+0  55532-4 0  9994
2 49307  87.9200 321.9177 0001734  87.1140 273.0192 13.20770937198402
ONEWEB-0382             
1 49308U 21090AF  25295.11785970  .00000049  00000+0  87463-4 0  9991
2 49308  87.9208 321.9121 0001584  90.0018 270.1297 13.20770120198396
ONEWEB-0383             
1 49309U 21090AG  25295.16344267 -.00000131  00000+0 -38781-3 0  9999
2 49309  87.9029 337.1046 0001674  98.6835 261.4485 13.14503546196326
ONEWEB-0384             
1 49310U 21090AH  25295.11227821  .00000039  00000+0  64421-4 0  9998
2 49310  87.9218 321.9443 0001309  91.1831 268.9452 13.20795811198401
ONEWEB-0385             
1 49311U 21090AJ  25295.10997656  .00000024  00000+0  26977-4 0  9996
2 49311  87.9197 321.9234 0001721  92.3178 267.8153 13.20771450198376
ONEWEB-0386             
1 49312U 21090AK  25295.12732993  .00000049  00000+0  89586-4 0  9992
2 49312  87.9210 321.8994 0001591  92.2434 267.8882 13.20770978198399
